{
  "norad_id": 65676,
  "name": "STARLINK-35189",
  "history": [
    {
      "epoch": "2026-03-28T20:54:46.135584",
      "apogee_km": 475.8669181319801,
      "perigee_km": 474.5238020560482,
      "latitude_deg": 51.83023567107738,
      "longitude_deg": 111.25126176024787,
      "semi_major_axis_km": 6853.332360094014,
      "eccentricity": 9.799e-05,
      "inclination_deg": 53.1587,
      "raan_deg": 256.3439,
      "arg_perigee_deg": 81.0584,
      "mean_anomaly_deg": 279.0527,
      "mean_motion_rev_day": 15.30206601
    }
  ]
}