{"fetched_at":"2026-03-30T13:17:50Z","count":15418,"tles":[{"name":"STARLINK-35189","line1":"1 65676U 25212A   26087.87136731  .00030040  00000+0  10221-2 0  9995","line2":"2 65676  53.1587 256.3439 0000979  81.0584 279.0527 15.30206601 30137","category":"Starlink"}]}